[{"OBJECT_NAME":"STARLINK-3248","OBJECT_ID":"2021-115AA","EPOCH":"2026-03-09T22:38:56.829984","MEAN_MOTION":15.08844075,"ECCENTRICITY":0.00013458,"INCLINATION":53.2178,"RA_OF_ASC_NODE":147.5581,"ARG_OF_PERICENTER":84.2223,"MEAN_ANOMALY":275.8922,"EPHEMERIS_TYPE":0,"CLASSIFICATION_TYPE":"U","NORAD_CAT_ID":49748,"ELEMENT_SET_NO":999,"REV_AT_EPOCH":23558,"BSTAR":-2.0171236e-5,"MEAN_MOTION_DOT":-6.09e-6,"MEAN_MOTION_DDOT":0},{"OBJECT_NAME":"FENGYUN 1C DEB","OBJECT_ID":"1999-025DMH","EPOCH":"2026-03-08T12:22:59.285280","MEAN_MOTION":14.74467635,"ECCENTRICITY":0.01679532,"INCLINATION":98.8961,"RA_OF_ASC_NODE":332.7174,"ARG_OF_PERICENTER":174.5846,"MEAN_ANOMALY":185.7228,"EPHEMERIS_TYPE":0,"CLASSIFICATION_TYPE":"U","NORAD_CAT_ID":35153,"ELEMENT_SET_NO":999,"REV_AT_EPOCH":98481,"BSTAR":0.00043532495,"MEAN_MOTION_DOT":3.561e-5,"MEAN_MOTION_DDOT":0}]
